$$SOE
2460728.500000000, A.D. 2025-Feb-22 00:00:00.0000, 3.169284510107114E+08, 8.133831972227338E+07, -6.633386049600913E+07,
2460735.500000000, A.D. 2025-Mar-01 00:00:00.0000, 3.135450399391462E+08, 9.378922065275465E+07, -6.646633140996812E+07,
2460742.500000000, A.D. 2025-Mar-08 00:00:00.0000, 3.097529919361717E+08, 1.061178953756637E+08, -6.651217470129398E+07,
2460749.500000000, A.D. 2025-Mar-15 00:00:00.0000, 3.055578314384474E+08, 1.183084814181737E+08, -6.647145525581797E+07,
2460756.500000000, A.D. 2025-Mar-22 00:00:00.0000, 3.009658136646684E+08, 1.303454302770822E+08, -6.634439873857249E+07,
2460763.500000000, A.D. 2025-Mar-29 00:00:00.0000, 2.959839001526291E+08, 1.422135498918680E+08, -6.613138989829212E+07,
2460770.500000000, A.D. 2025-Apr-05 00:00:00.0000, 2.906197327933844E+08, 1.538980457777471E+08, -6.583297019679343E+07,
2460777.500000000, A.D. 2025-Apr-12 00:00:00.0000, 2.848816046851491E+08, 1.653845606396363E+08, -6.544983460801211E+07,
2460784.500000000, A.D. 2025-Apr-19 00:00:00.0000, 2.787784278984401E+08, 1.766592113353540E+08, -6.498282767982852E+07,
2460791.500000000, A.D. 2025-Apr-26 00:00:00.0000, 2.723196987251505E+08, 1.877086227696873E+08, -6.443293894504512E+07,
2460798.500000000, A.D. 2025-May-03 00:00:00.0000, 2.655154608430696E+08, 1.985199585607771E+08, -6.380129774077296E+07,
2460805.500000000, A.D. 2025-May-10 00:00:00.0000, 2.583762667540651E+08, 2.090809483489178E+08, -6.308916749321771E+07,
2460812.500000000, A.D. 2025-May-17 00:00:00.0000, 2.509131378690643E+08, 2.193799116081181E+08, -6.229793953346124E+07,
2460819.500000000, A.D. 2025-May-24 00:00:00.0000, 2.431375237524468E+08, 2.294057778474884E+08, -6.142912652659081E+07,
2460826.500000000, A.D. 2025-May-31 00:00:00.0000, 2.350612612809925E+08, 2.391481034931688E+08, -6.048435559142619E+07,
2460833.500000000, A.D. 2025-Jun-07 00:00:00.0000, 2.266965336447535E+08, 2.485970866670195E+08, -5.946536103961116E+07,
2460840.500000000, A.D. 2025-Jun-14 00:00:00.0000, 2.180558271334996E+08, 2.577435792415666E+08, -5.837397663279858E+07,
2460847.500000000, A.D. 2025-Jun-21 00:00:00.0000, 2.091518872246263E+08, 2.665790929905859E+08, -5.721212780091624E+07,
2460854.500000000, A.D. 2025-Jun-28 00:00:00.0000, 1.999976773899001E+08, 2.750958017138093E+08, -5.598182402848524E+07,
2460861.500000000, A.D. 2025-Jul-05 00:00:00.0000, 1.906063393636443E+08, 2.832865416241733E+08, -5.468515115153811E+07,
2460868.500000000, A.D. 2025-Jul-12 00:00:00.0000, 1.809911539151473E+08, 2.911448093503401E+08, -5.332426357643217E+07,
2460875.500000000, A.D. 2025-Jul-19 00:00:00.0000, 1.711655025261224E+08, 2.986647571579249E+08, -5.190137653708796E+07,
2460882.500000000, A.D. 2025-Jul-26 00:00:00.0000, 1.611428303695025E+08, 3.058411855261154E+08, -5.041875846289933E+07,
2460889.500000000, A.D. 2025-Aug-02 00:00:00.0000, 1.509366108155328E+08, 3.126695333056884E+08, -4.887872350561300E+07,
2460896.500000000, A.D. 2025-Aug-09 00:00:00.0000, 1.405603116237267E+08, 3.191458656555539E+08, -4.728362426799062E+07,
2460903.500000000, A.D. 2025-Aug-16 00:00:00.0000, 1.300273630079384E+08, 3.252668599096137E+08, -4.563584478097810E+07,
2460910.500000000, A.D. 2025-Aug-23 00:00:00.0000, 1.193511279528439E+08, 3.310297896047419E+08, -4.393779378401433E+07,
2460917.500000000, A.D. 2025-Aug-30 00:00:00.0000, 1.085448751722540E+08, 3.364325075950475E+08, -4.219189830424924E+07,
2460924.500000000, A.D. 2025-Sep-06 00:00:00.0000, 9.762175332904226E+07, 3.414734294557733E+08, -4.040059734147568E+07,
2460931.500000000, A.D. 2025-Sep-13 00:00:00.0000, 8.659476485456052E+07, 3.461515148878956E+08, -3.856633572098741E+07,
2460938.500000000, A.D. 2025-Sep-20 00:00:00.0000, 7.547674262775645E+07, 3.504662456821810E+08, -3.669155856095462E+07,
2460945.500000000, A.D. 2025-Sep-27 00:00:00.0000, 6.428033055683681E+07, 3.544176035557716E+08, -3.477870620933130E+07,
2460952.500000000, A.D. 2025-Oct-04 00:00:00.0000, 5.301796601911237E+07, 3.580060485804596E+08, -3.283020942750196E+07,
2460959.500000000, A.D. 2025-Oct-11 00:00:00.0000, 4.170186374150914E+07, 3.612324974243216E+08, -3.084848486475804E+07,
2460966.500000000, A.D. 2025-Oct-18 00:00:00.0000, 3.034400134903720E+07, 3.640983012841337E+08, -2.883593087002820E+07,
2460973.500000000, A.D. 2025-Oct-25 00:00:00.0000, 1.895610665359068E+07, 3.666052236583096E+08, -2.679492364797133E+07,
2460980.500000000, A.D. 2025-Nov-01 00:00:00.0000, 7.549646646600886E+06, 3.687554181021110E+08, -2.472781375478600E+07,
2460987.500000000, A.D. 2025-Nov-08 00:00:00.0000, -3.864181852351656E+06, 3.705514060479095E+08, -2.263692293070570E+07,
2460994.500000000, A.D. 2025-Nov-15 00:00:00.0000, -1.527445983028358E+07, 3.719960547342407E+08, -2.052454127726704E+07,
2461001.500000000, A.D. 2025-Nov-22 00:00:00.0000, -2.667055168688292E+07, 3.730925555548354E+08, -1.839292478681599E+07,
2461008.500000000, A.D. 2025-Nov-29 00:00:00.0000, -3.804210905742631E+07, 3.738444040444091E+08, -1.624429310522938E+07,
2461015.500000000, A.D. 2025-Dec-06 00:00:00.0000, -4.937907521956588E+07, 3.742553814356482E+08, -1.408082731711642E+07,
2461022.500000000, A.D. 2025-Dec-13 00:00:00.0000, -6.067168973969972E+07, 3.743295344689215E+08, -1.190466805369401E+07,
2461029.500000000, A.D. 2025-Dec-20 00:00:00.0000, -7.191048996070966E+07, 3.740711545239257E+08, -9.717914144882843E+06,
2461036.500000000, A.D. 2025-Dec-27 00:00:00.0000, -8.308631049351667E+07, 3.734847587091033E+08, -7.522621491379365E+06,
2461043.500000000, A.D. 2026-Jan-03 00:00:00.0000, -9.419028225439794E+07, 3.725750723226534E+08, -5.320802058338583E+06,
2461050.500000000, A.D. 2026-Jan-10 00:00:00.0000, -1.052138310211092E+08, 3.713470120249540E+08, -3.114423041115895E+06,
2461057.500000000, A.D. 2026-Jan-17 00:00:00.0000, -1.161486753567799E+08, 3.698056696441043E+08, -9.054062173877954E+05,
2461064.500000000, A.D. 2026-Jan-24 00:00:00.0000, -1.269868239024906E+08, 3.679562966460895E+08, 1.304372522946760E+06,
2461071.500000000, A.D. 2026-Jan-31 00:00:00.0000, -1.377205720903187E+08, 3.658042892672452E+08, 3.513083480756596E+06,
2461078.500000000, A.D. 2026-Feb-07 00:00:00.0000, -1.483424982859545E+08, 3.633551742531586E+08, 5.718943286336571E+06,
2461085.500000000, A.D. 2026-Feb-14 00:00:00.0000, -1.588454591733260E+08, 3.606145951861411E+08, 7.920214862074375E+06,
2461092.500000000, A.D. 2026-Feb-21 00:00:00.0000, -1.692225840545745E+08, 3.575882999715057E+08, 1.011520723316273E+07,
2461099.500000000, A.D. 2026-Feb-28 00:00:00.0000, -1.794672692073215E+08, 3.542821306267596E+08, 1.230227539194907E+07,
2461106.500000000, A.D. 2026-Mar-07 00:00:00.0000, -1.895731744082736E+08, 3.507020134114998E+08, 1.447982025651103E+07,
2461113.500000000, A.D. 2026-Mar-14 00:00:00.0000, -1.995342188916627E+08, 3.468539469436107E+08, 1.664628828900719E+07,
2461120.500000000, A.D. 2026-Mar-21 00:00:00.0000, -2.093445750065273E+08, 3.427439911759585E+08, 1.880017085725908E+07,
2461127.500000000, A.D. 2026-Mar-28 00:00:00.0000, -2.189986616261790E+08, 3.383782582441411E+08, 2.094000361711405E+07,
2461134.500000000, A.D. 2026-Apr-04 00:00:00.0000, -2.284911379501607E+08, 3.337629041984860E+08, 2.306436590074755E+07,
2461141.500000000, A.D. 2026-Apr-11 00:00:00.0000, -2.378168974584992E+08, 3.289041212358700E+08, 2.517188006465249E+07,
2461148.500000000, A.D. 2026-Apr-18 00:00:00.0000, -2.469710618904906E+08, 3.238081304001451E+08, 2.726121078992398E+07,
2461155.500000000, A.D. 2026-Apr-25 00:00:00.0000, -2.559489752306800E+08, 3.184811747418400E+08, 2.933106433909822E+07,
2461162.500000000, A.D. 2026-May-02 00:00:00.0000, -2.647461976963246E+08, 3.129295128837798E+08, 3.138018777105215E+07,
2461169.500000000, A.D. 2026-May-09 00:00:00.0000, -2.733584996228605E+08, 3.071594129024637E+08, 3.340736810326953E+07,
2461176.500000000, A.D. 2026-May-16 00:00:00.0000, -2.817818548868126E+08, 3.011771466385124E+08, 3.541143140353039E+07,
2461183.500000000, A.D. 2026-May-23 00:00:00.0000, -2.900124338296810E+08, 2.949889854318933E+08, 3.739124189448027E+07,
2461190.500000000, A.D. 2026-May-30 00:00:00.0000, -2.980465977774036E+08, 2.886011975752533E+08, 3.934570129202014E+07,
2461197.500000000, A.D. 2026-Jun-06 00:00:00.0000, -3.058808954879190E+08, 2.820200441882362E+08, 4.127374814307615E+07,
2461204.500000000, A.D. 2026-Jun-13 00:00:00.0000, -3.135120578726407E+08, 2.752517736871146E+08, 4.317435684638959E+07,
2461211.500000000, A.D. 2026-Jun-20 00:00:00.0000, -3.209369915071023E+08, 2.683026177528476E+08, 4.504653664496888E+07,
2461218.500000000, A.D. 2026-Jun-27 00:00:00.0000, -3.281527726425110E+08, 2.611787884409974E+08, 4.688933072174500E+07,
2461225.500000000, A.D. 2026-Jul-04 00:00:00.0000, -3.351566417256560E+08, 2.538864756420750E+08, 4.870181533803254E+07,
2461232.500000000, A.D. 2026-Jul-11 00:00:00.0000, -3.419459981777368E+08, 2.464318447415520E+08, 5.048309898299673E+07,
2461239.500000000, A.D. 2026-Jul-18 00:00:00.0000, -3.485183953433490E+08, 2.388210344859577E+08, 5.223232152960950E+07,
2461246.500000000, A.D. 2026-Jul-25 00:00:00.0000, -3.548715355887682E+08, 2.310601550391424E+08, 5.394865339673716E+07,
2461253.500000000, A.D. 2026-Aug-01 00:00:00.0000, -3.610032655044498E+08, 2.231552861629085E+08, 5.563129471050335E+07,
2461260.500000000, A.D. 2026-Aug-08 00:00:00.0000, -3.669115709991563E+08, 2.151124754694184E+08, 5.727947444361924E+07,
2461267.500000000, A.D. 2026-Aug-15 00:00:00.0000, -3.725945718722109E+08, 2.069377371798149E+08, 5.889244953257889E+07,
2461274.500000000, A.D. 2026-Aug-22 00:00:00.0000, -3.780505166264219E+08, 1.986370525950433E+08, 6.046950414338535E+07,
2461281.500000000, A.D. 2026-Aug-29 00:00:00.0000, -3.832777798133187E+08, 1.902163708926824E+08, 6.200994918480033E+07,
2461288.500000000, A.D. 2026-Sep-05 00:00:00.0000, -3.882748597776822E+08, 1.816816073706440E+08, 6.351312164020428E+07,
2461295.500000000, A.D. 2026-Sep-12 00:00:00.0000, -3.930403743427984E+08, 1.730386416206352E+08, 6.497838369718257E+07,
$$EOE